{"spkid": "20162695", "covariance": {"data": [["1.764197256668997E-14", "-3.210379024805711E-14", "1.36899773216352E-11", "-2.137755434995337E-12", "7.145437669790583E-12", "4.900776065861768E-14"], ["-3.210379024805711E-14", "5.854527587523537E-14", "-2.455743841062059E-11", "4.442374264534327E-12", "-1.34507342039035E-11", "-6.95725997527981E-14"], ["1.36899773216352E-11", "-2.455743841062059E-11", "1.173311029221758E-8", "-1.221717339772603E-10", "4.404161649054745E-9", "1.010255529049371E-10"], ["-2.137755434995337E-12", "4.442374264534327E-12", "-1.221717339772603E-10", "2.314660074469411E-7", "-2.311361869084815E-7", "2.606955093589547E-9"], ["7.145437669790583E-12", "-1.34507342039035E-11", "4.404161649054745E-9", "-2.311361869084815E-7", "2.324336112475101E-7", "-2.559349332661522E-9"], ["4.900776065861768E-14", "-6.95725997527981E-14", "1.010255529049371E-10", "2.606955093589547E-9", "-2.559349332661522E-9", "5.03444569797817E-11"]], "elements": [{"label": "e", "value": ".6348718075450021", "title": "eccentricity", "units": null, "name": "e", "sigma": 1.32823087476124e-07}, {"value": ".7764013345579867", "title": "perihelion distance", "units": "au", "name": "q", "sigma": 2.41961310699119e-07, "label": "q"}, {"label": "tp", "units": "TDB", "value": "2453042.359966676619", "title": "time of perihelion passage", "name": "tp", "sigma": 0.000108319482514539}, {"label": "node", "units": "deg", "title": "longitude of the ascending node", "value": "333.7814973923132", "name": "om", "sigma": 0.000481109142967519}, {"label": "peri", "units": "deg", "title": "argument of perihelion", "value": "150.9954633528237", "sigma": 0.000482113691205207, "name": "w"}, {"title": "inclination", "value": "2.176727119349462", "units": "deg", "name": "i", "sigma": 7.09538279304096e-06, "label": "i"}], "labels": ["e", "q", "tp", "node", "peri", "i"], "epoch": "2452630.5"}, "elements": [{"label": "e", "units": null, "value": ".6356139961810668", "title": "eccentricity", "sigma": "1.0622E-7", "name": "e"}, {"label": "a", "title": "semi-major axis", "value": "2.123376057584715", "units": "au", "sigma": "7.8639E-8", "name": "a"}, {"label": "q", "value": ".7737285162280951", "title": "perihelion distance", "units": "au", "sigma": "2.5256E-7", "name": "q"}, {"title": "inclination; angle with respect to x-y ecliptic plane", "value": "2.186928654968776", "units": "deg", "name": "i", "sigma": "7.5534E-6", "label": "i"}, {"sigma": ".00047158", "name": "om", "value": "333.1767697712822", "title": "longitude of the ascending node", "units": "deg", "label": "node"}, {"units": "deg", "value": "152.1406315350395", "title": "argument of perihelion", "sigma": ".00047271", "name": "w", "label": "peri"}, {"units": "deg", "title": "mean anomaly", "value": "77.69590395208648", "sigma": ".00012952", "name": "ma", "label": "M"}, {"label": "tp", "title": "time of perihelion passage", "value": "2460956.587294136775", "units": "TDB", "sigma": ".00042013", "name": "tp"}, {"label": "period", "units": "d", "value": "1130.157056476374", "title": "sidereal orbital period", "sigma": "6.2783E-5", "name": "per"}, {"label": "n", "units": "deg/d", "value": ".3185397975768208", "title": "mean motion", "name": "n", "sigma": "1.7696E-8"}, {"title": "aphelion distance", "value": "3.473023598941334", "units": "au", "sigma": "1.2862E-7", "name": "ad", "label": "Q"}], "epoch": "2461200.5"}